{"type":"FeatureCollection","features":[{"type":"Feature","geometry":{"type":"Polygon","coordinates":[[[-105.24051599962847,39.75436199993336],[-105.24050700030594,39.753925999958874],[-105.24049800008511,39.753823999699556],[-105.24048999968919,39.7536349998151],[-105.24020699983197,39.75361800005589],[-105.2402090003801,39.75352600031106],[-105.2401940003115,39.75331799971434],[-105.24019299958827,39.753269000252644],[-105.24000599999053,39.75319700000795],[-105.23991800012696,39.753174999975684],[-105.23974599969952,39.75312000020969],[-105.23945399962146,39.75301099989066],[-105.23898099979345,39.752882000037886],[-105.23892499971696,39.75286700016784],[-105.23865500027854,39.752804999887516],[-105.2384540004371,39.75277300003295],[-105.23846100010978,39.752676999689264],[-105.23847100015553,39.752554000154106],[-105.23793700022814,39.752530999874175],[-105.23793800005305,39.75240599998999],[-105.23811200013033,39.75239200006068],[-105.23816400000885,39.75238799988303],[-105.2384279995995,39.752404999945796],[-105.23848100020126,39.75241200025481],[-105.23854599960028,39.75157599975734],[-105.23792499963425,39.751480999875014],[-105.23761199963981,39.75142600013778],[-105.23727699990407,39.75139400033317],[-105.23702099981104,39.75142700019619],[-105.23672200006027,39.75153700031584],[-105.23624099983634,39.751672000254096],[-105.23625400025513,39.751891000174396],[-105.2359489997583,39.75189999994807],[-105.2357930001227,39.75189599974185],[-105.23569000019053,39.7518940003293],[-105.23561099964948,39.751886999967645],[-105.23553799985456,39.75186200005149],[-105.23545900021183,39.751796000035874],[-105.23530699987586,39.751660000285625],[-105.23511199988219,39.75152599969021],[-105.2345260000763,39.75106899977089],[-105.2339350002475,39.750705999903666],[-105.23299799991398,39.750316000260774],[-105.23258500036042,39.75019500011587],[-105.23216000021299,39.7500710002149],[-105.23178399957104,39.749995999843414],[-105.2315579996152,39.749970999931655],[-105.23103600028172,39.7499279999517],[-105.23103600028172,39.74989800030318],[-105.23103399973358,39.74908100006371],[-105.23104299995441,39.74788000012007],[-105.23111699957424,39.747659999768004],[-105.2311130002746,39.7472199997191],[-105.23191199961755,39.74721599993183],[-105.23314500022708,39.74721200014433],[-105.23403599963152,39.747178000214284],[-105.23402700030901,39.74596899984091],[-105.23394000027037,39.74570400015858],[-105.23373799970568,39.74513500019635],[-105.23389000004163,39.74509599987145],[-105.23425699956447,39.74500300033599],[-105.23459499967325,39.74491699967351],[-105.23633399972276,39.744535000300594],[-105.23627099997357,39.74446299990674],[-105.23620200037661,39.744439000219195],[-105.23606400028433,39.74445299969257],[-105.23546099986167,39.744567999995475],[-105.23510900040746,39.74457400025224],[-105.23487699970556,39.74452699972329],[-105.23473500031365,39.74447000033204],[-105.23462800018353,39.74435600002666],[-105.23454399961963,39.744250000142976],[-105.23449799958888,39.74416500008593],[-105.23448900026636,39.74409000019222],[-105.23448699971823,39.74399800015593],[-105.23449599993906,39.74388099994734],[-105.2345200002285,39.74374199994901],[-105.23459899987122,39.74358299968167],[-105.23464999992483,39.743601000017065],[-105.23573600022128,39.744018000024155],[-105.23599599961396,39.743479999820956],[-105.23611799981268,39.74321800007814],[-105.23629799973776,39.74283100004072],[-105.23609299969831,39.742698999911035],[-105.23534299986088,39.742214000303534],[-105.23516100028601,39.74243699996169],[-105.23489000012435,39.742769999891884],[-105.23484200044378,39.74281499987102],[-105.23477899979628,39.74277500012125],[-105.23476100025292,39.742773999937256],[-105.23462700035861,39.742764999662164],[-105.23446999999977,39.74281099982802],[-105.23396000036186,39.74293700003506],[-105.23366599973566,39.74293700003506],[-105.23346300024438,39.74284499984079],[-105.2331540004479,39.74256899990251],[-105.23298200002044,39.742392999925194],[-105.2329779998225,39.7422430003433],[-105.23296699995184,39.741294999964175],[-105.2329510000583,39.73996700027725],[-105.23180200001269,39.739980999968395],[-105.2310200003882,39.73998999991638],[-105.22769499955174,39.73998399995117],[-105.22759800036569,39.73998399995117],[-105.22757300025133,39.73998399995117],[-105.22194299965095,39.73997300024389],[-105.22188499992464,39.73562400020169],[-105.22184700028978,39.732725000268935],[-105.22399100039524,39.73268599982901],[-105.22388500009004,39.73097400011897],[-105.22379600040158,39.72945299982719],[-105.22221999966038,39.72947699989749],[-105.22164100042548,39.7294839997725],[-105.22161899978585,39.72913799977056],[-105.22087200032145,39.7291300001693],[-105.22084499965894,39.72882699982041],[-105.2208270001156,39.72856199985328],[-105.22158299980083,39.72856800012192],[-105.22139200000514,39.725560000319035],[-105.21732300007733,39.725488000137815],[-105.21684500022646,39.72547899967808],[-105.21684400040155,39.72532500022702],[-105.2168429996783,39.72502600012229],[-105.21683199980765,39.722855999942446],[-105.21682799960969,39.72208899973796],[-105.21682400031005,39.72142600028719],[-105.21681000006633,39.71940000031013],[-105.21680800041653,39.71907900021732],[-105.2168059998684,39.71883399967282],[-105.21680300039365,39.71830200029101],[-105.21762699985095,39.71831100030555],[-105.21794900006621,39.71831499969744],[-105.22127400000436,39.71835200028031],[-105.22127900002721,39.71861700010232],[-105.22138899963207,39.72507500032299],[-105.22139200000514,39.725560000319035],[-105.22631399970253,39.72552099997112],[-105.22978699977867,39.725496999905474],[-105.2297969998244,39.72417199981618],[-105.22981600009098,39.721186000202806],[-105.22983000033469,39.71829599981998],[-105.23059000021786,39.71827799978571],[-105.23097500018234,39.71826799991821],[-105.23213599992351,39.71826299998392],[-105.2320139997248,39.71821899971734],[-105.23190400011994,39.718192000325075],[-105.2317889995939,39.71817100002267],[-105.23157199985893,39.718147000162794],[-105.23116099995518,39.71814200021973],[-105.23115000008453,39.71660599999768],[-105.231162999605,39.71513199979954],[-105.23258700001023,39.71519599990166],[-105.2327390003462,39.71547200026621],[-105.2347179996969,39.715482999737134],[-105.23595200013135,39.71716099967922],[-105.23674200015178,39.71824800017886],[-105.23726100001053,39.71824800017886],[-105.23852200020914,39.71823800030701],[-105.2385759997375,39.7171840000179],[-105.23829100023046,39.71717900000502],[-105.23824299965158,39.71683600005278],[-105.23859599982897,39.71684399969836],[-105.2385969996539,39.716772000090415],[-105.23861400027064,39.71641300010771],[-105.23869200008845,39.71474700011344],[-105.238707999982,39.71449699986651],[-105.2387239998755,39.71426200007972],[-105.23875200036292,39.713716999712794],[-105.2388000000435,39.71284700011275],[-105.2388929999299,39.7109460003432],[-105.23479100039015,39.710963000263206],[-105.22986399977155,39.711003999768444],[-105.2271630001725,39.71101699985932],[-105.22516600038014,39.711027000087014],[-105.22112500004144,39.71104699984704],[-105.2210940000793,39.70913799969364],[-105.22102600030723,39.704687000243986],[-105.22100500039083,39.70363799984595],[-105.2210170000864,39.701488999762354],[-105.21549399961613,39.700601999691436],[-105.21169900022306,39.702237000122246],[-105.20839600002623,39.70365700030529],[-105.20663900043338,39.703646000331005],[-105.20651899988447,39.70204099986566],[-105.2064939997701,39.70158400012721],[-105.20636099970072,39.70160900031065],[-105.20629700012663,39.701649999845394],[-105.20623000017947,39.701686999691255],[-105.20614700033879,39.70172599969402],[-105.20606199994997,39.70175899983868],[-105.20597400008643,39.70178700022128],[-105.20588299984983,39.70180900006964],[-105.20579699963612,39.70182399999364],[-105.20570999959747,39.70183400017156],[-105.20562299955883,39.70184000000117],[-105.2055349996953,39.70184000000117],[-105.20544699983174,39.70183500025838],[-105.2053599997931,39.701826000167586],[-105.20533399985383,39.70182299990666],[-105.20530799991457,39.70182399999364],[-105.2052829998002,39.70182800034143],[-105.20525799968584,39.70183400017156],[-105.20523599994455,39.701843000261356],[-105.20519099973869,39.70186099974621],[-105.20514300005813,39.70187500026379],[-105.20509399965431,39.70188300026208],[-105.20504299960069,39.70188699991535],[-105.20493100034602,39.70188900008742],[-105.20453700016071,39.702003000125295],[-105.20449699997775,39.702013000277226],[-105.20427900041786,39.70253299996228],[-105.2041139996631,39.70292399981739],[-105.20409600011975,39.70363000005113],[-105.2039160001947,39.70362799992946],[-105.20298300005913,39.70362100019439],[-105.20249799963725,39.70361900007252],[-105.20195799986207,39.70431600034073],[-105.20181999976982,39.704494000180006],[-105.20157299989762,39.70461599974249],[-105.20168300040079,39.704671000205494],[-105.19831599973155,39.70900899995428],[-105.19836299958722,39.71090899993376],[-105.19839000024972,39.71152699994937],[-105.19839199989953,39.71239100000963],[-105.19839799974731,39.71448199993346],[-105.1981149998901,39.714650000103106],[-105.19778099997924,39.714848000271324],[-105.19747700020564,39.7150279996798],[-105.19718400030268,39.71520100005829],[-105.19677500004877,39.71544300001944],[-105.19629600037297,39.7157269998619],[-105.19544600007809,39.715971999696386],[-105.19374800003648,39.7162170000427],[-105.19362500001283,39.716081999748006],[-105.19362599983775,39.71567399969293],[-105.19362699966264,39.715371000331004],[-105.1936309998606,39.71390400007419],[-105.19356800011141,39.71398399988919],[-105.19356200026364,39.71332099991624],[-105.19355700024076,39.71275399990906],[-105.1935589998906,39.71258300016587],[-105.1935520002179,39.712169999769266],[-105.19358400000496,39.71212399988663],[-105.19365000012718,39.712027000334],[-105.19369699998283,39.71195699972436],[-105.19367500024154,39.71156499997315],[-105.19367100004358,39.71149400032996],[-105.19364900030226,39.71111400014107],[-105.19324000004835,39.71112199975926],[-105.19316200023054,39.71112399966364],[-105.19287299962723,39.71113000006759],[-105.1927439997558,39.71113299992378],[-105.19123800023311,39.71116299986107],[-105.19083900002495,39.71117100016464],[-105.19082399995634,39.71117100016464],[-105.18905200029486,39.711207999742506],[-105.1888790000425,39.71122600023971],[-105.18883100036194,39.711230999993056],[-105.18884300005749,39.71211399981796],[-105.18884899990528,39.7126559999303],[-105.18890300033196,39.71738299968338],[-105.18887999986741,39.717669000235254],[-105.18830499993216,39.71836499967738],[-105.18763200008759,39.718959000341435],[-105.18726999968935,39.71926299966761],[-105.18679199983845,39.71963300020801],[-105.1863919998054,39.7199200002368],[-105.18629200024627,39.71999100018964],[-105.18618599994106,39.720066000050664],[-105.18599900034332,39.72019099986819],[-105.18562000022663,39.72019199968896],[-105.18496199955237,39.720194999842036],[-105.18486199999325,39.72019599966271],[-105.18423500017944,39.72021300006689],[-105.1842309999815,39.72009200026907],[-105.1842319998064,39.71994000018221],[-105.18421099989001,39.71826299998392],[-105.18361699968817,39.718263999832644],[-105.18346600007543,39.71826499968132],[-105.18302300038464,39.71826499968132],[-105.1824359998555,39.71826899976687],[-105.1817670002089,39.718273999700735],[-105.18138800009223,39.71827600008874],[-105.18093500035567,39.718272000003594],[-105.18048900029184,39.718263999832644],[-105.17982099957183,39.71825599966072],[-105.17953199986684,39.718257000200495],[-105.17941899988894,39.7182599997468],[-105.17920800000175,39.71826499968132],[-105.17899299991659,39.718271000155035],[-105.1787829998543,39.71827299985214],[-105.17856899959406,39.718273999700735],[-105.17835600005705,39.718273999700735],[-105.17814299962171,39.718273999700735],[-105.17792800043486,39.71827299985214],[-105.17784200022113,39.718272000003594],[-105.17765300007524,39.71827000030646],[-105.17749800026458,39.71826899976687],[-105.17707200029221,39.71826499968132],[-105.17664799996967,39.71826200013522],[-105.17642700003674,39.71826100028652],[-105.17587200019297,39.71824999987669],[-105.17556400022139,39.71824099985413],[-105.17534400011336,39.718235999917894],[-105.17505600023328,39.718244999941085],[-105.17484799982083,39.71825399996312],[-105.17486399971433,39.720156999735735],[-105.17487799995804,39.721601999910355],[-105.17486999956212,39.722887000090225],[-105.17486700008739,39.723309999711404],[-105.17486399971433,39.723724999963956],[-105.17486700008739,39.72382600010206],[-105.17488700017887,39.724539000309285],[-105.17489300002666,39.724767999717706],[-105.17489899987443,39.724976999886714],[-105.1722009997501,39.72498899966561],[-105.17025599983629,39.724851999762585],[-105.17016899979764,39.72484599986148],[-105.16935299983795,39.72476699996328],[-105.16920499969996,39.72470799991908],[-105.16893600008645,39.724572999663096],[-105.16822899990672,39.72385900003984],[-105.16803499973794,39.723721000194864],[-105.1678690000566,39.723626999681734],[-105.16765399997142,39.723546999996735],[-105.16740799992414,39.72351300013702],[-105.16561199997324,39.723482000270664],[-105.1655740003384,39.72181199979951],[-105.16543200004817,39.721807000122155],[-105.16306500035994,39.72184800009137],[-105.16311899988831,39.72193900018877],[-105.16273999977162,39.72212599967791],[-105.16271999968014,39.72215000022592],[-105.16248500040182,39.72244199977561],[-105.16184799964395,39.72395699999234],[-105.1618500001921,39.72400400004001],[-105.16186100006276,39.72421599973925],[-105.16186299971257,39.72426199984869],[-105.16186299971257,39.72427699972751],[-105.16236200037818,39.72427800017993],[-105.16281599993962,39.72427999970286],[-105.16402299971155,39.72428400013046],[-105.16407899978805,39.72435600018711],[-105.16413999988741,39.72444200025217],[-105.16402899955932,39.72448800021079],[-105.16391099955857,39.72452999972567],[-105.16379000008304,39.7245650002231],[-105.1636650004096,39.72459400008875],[-105.16353900001288,39.72461700002122],[-105.16328100027002,39.72464299990557],[-105.16431200031487,39.72459400008875],[-105.16458000010346,39.7245809997931],[-105.16496099986998,39.7245749998684],[-105.16509300011445,39.72450699976417],[-105.16531999989519,39.72431199966243],[-105.16531700042043,39.72399400031185],[-105.16545700016252,39.723995999843076],[-105.16560899960018,39.7240000002871],[-105.16561299979814,39.72369100019201],[-105.16739399968044,39.72370699996486],[-105.16758500037447,39.72374099972892],[-105.16773400033738,39.723790000151894],[-105.16784499976715,39.723862999800936],[-105.16804899998164,39.72402199996158],[-105.16877000040508,39.72473899992519],[-105.16902899997287,39.724873999856165],[-105.16929699976146,39.724970999996486],[-105.16938799999807,39.72499099985886],[-105.17008799960679,39.725046999719055],[-105.17214700022176,39.72518399992556],[-105.17487499958499,39.72517299992911],[-105.17576500006282,39.72518999979726],[-105.17646399984666,39.72518699986145],[-105.17687800012345,39.7251500001821],[-105.17728499982923,39.7251189996699],[-105.17754900031818,39.72506899975041],[-105.1776699997937,39.725054999794054],[-105.17824399990404,39.724926000112184],[-105.1787540004403,39.724788000329895],[-105.17904599962003,39.72479100028301],[-105.17993500027298,39.72479299979112],[-105.1801560002059,39.72479299979112],[-105.1801560002059,39.724811000197604],[-105.18040700027608,39.724811000197604],[-105.18088299957883,39.72481499990347],[-105.18022399997797,39.72526200028966],[-105.18003200035736,39.72539199977923],[-105.17984999988415,39.72551500012822],[-105.17955399960816,39.72571600010835],[-105.17947699961526,39.72576699998948],[-105.1794799999883,39.72580900010709],[-105.17948800038423,39.72593300014065],[-105.17948699966101,39.726002999693364],[-105.17913000018395,39.726002999693364],[-105.17830500000342,39.72653800034311],[-105.17830500000342,39.72655999989868],[-105.17827499986618,39.726559000170276],[-105.17817500030708,39.72662599990516],[-105.1780780002227,39.72669300026583],[-105.17786800016042,39.7268359996939],[-105.17778500031974,39.72689900026575],[-105.17765499972508,39.72696900021955],[-105.17752400020382,39.727039999823724],[-105.17735500014942,39.72710399992969],[-105.17724899984421,39.727170000106334],[-105.17724899984421,39.727182000194475],[-105.17724999966912,39.72724600016863],[-105.17735699979926,39.72724600016863],[-105.17735699979926,39.72732700011555],[-105.17735699979926,39.72769700022386],[-105.17782899980234,39.72769700022386],[-105.17782899980234,39.727757000185036],[-105.17828300026211,39.72775500007204],[-105.17841499960828,39.727757000185036],[-105.17841399978336,39.72803300002472],[-105.17900100031251,39.72803200031769],[-105.17900399978724,39.72853699976472],[-105.17884300012878,39.728573999699144],[-105.1784780002558,39.72865700024542],[-105.17841899980623,39.72866999977256],[-105.17773699974084,39.72884800033217],[-105.17723899979848,39.72898499989486],[-105.17608899992794,39.72932100032735],[-105.17489399985155,39.72966999984262],[-105.17366199996526,39.72997400031055],[-105.17368799990453,39.73007300023037],[-105.1736939997523,39.73016100011653],[-105.17489300002666,39.72989099996812],[-105.17609499977571,39.72950999989421],[-105.17723600032375,39.729202999691736],[-105.1777970000153,39.72904099996552],[-105.17844300009568,39.72886700006592],[-105.17854100000497,39.728844999864684],[-105.17886200039534,39.72877100026681],[-105.17921999969731,39.72876700009954],[-105.18192799986738,39.728077000247495],[-105.1831260003168,39.72778499968844],[-105.18312399976867,39.72785300001429],[-105.1831260003168,39.72802300019003],[-105.18312899979153,39.72822500016273],[-105.18313999966219,39.72913900015245],[-105.1843089997993,39.72915099989789],[-105.18429700010373,39.72948900027493],[-105.1842879998829,39.730396999978936],[-105.18428000038529,39.73124699984312],[-105.18650999980615,39.730563000036305],[-105.1866739998377,39.73051400028156],[-105.18667600038582,39.730065999724346],[-105.18667999968547,39.729888000236855],[-105.18738799969012,39.72986799972238],[-105.18738199984233,39.73007300023037],[-105.18737699981948,39.73017899981251],[-105.1874010001089,39.730295000119966],[-105.18900100024125,39.729813000004704],[-105.18902100033273,39.729719000197264],[-105.18902100033273,39.72956099973241],[-105.18901999960951,39.729110999817166],[-105.18966099966703,39.72910699966967],[-105.18977899966778,39.729105999978145],[-105.19011900032473,39.72910399990429],[-105.1901310000203,39.7290969999907],[-105.19013400039334,39.7290119998976],[-105.19014799973873,39.72858299975487],[-105.19015299976161,39.728489000343004],[-105.19016100015752,39.7274190002981],[-105.19015699995956,39.72729599989124],[-105.188061000433,39.72730799995746],[-105.18781299983756,39.727308999675],[-105.18781899968535,39.72634900022878],[-105.18785300002054,39.726301999706834],[-105.18824200018297,39.725764000078776],[-105.18826099955123,39.72573700018589],[-105.18827899999289,39.72571300019543],[-105.18846499976573,39.72545600003315],[-105.1885760000938,39.72530100009316],[-105.1886680001553,39.725166000307325],[-105.1887519998209,39.72505199985242],[-105.18896600008114,39.72475800010034],[-105.18917799979326,39.72446300002679],[-105.19105999995787,39.72394200004391],[-105.19144499992235,39.723832000091924],[-105.19150199982376,39.723921000110565],[-105.19176700013763,39.723815999657155],[-105.19188900033636,39.72398300012561],[-105.19077000042799,39.72467499969669],[-105.19060100037359,39.72475399970024],[-105.19181700036634,39.72475399970024],[-105.19253600024166,39.72475399970024],[-105.1927089995957,39.72475399970024],[-105.19370500037877,39.72475399970024],[-105.1939339998093,39.72506599980934],[-105.19409299981797,39.72527699995099],[-105.19418800025252,39.725409000284266],[-105.19419400010031,39.725445999824636],[-105.1941809996815,39.725662000274355],[-105.19410100021389,39.72598300012447],[-105.19389399962634,39.72637299999781],[-105.19386500021234,39.726475999861854],[-105.19382599985427,39.726617000284875],[-105.1938069995877,39.727042999678865],[-105.19378300019656,39.72723699993837],[-105.19380400011298,39.727476999689245],[-105.19382300037955,39.72797300030375],[-105.1938269996792,39.730510000215425],[-105.19382599985427,39.73065900010349],[-105.19382300037955,39.73129599976779],[-105.19381900018158,39.732687000159416],[-105.19380900013586,39.732741000017896],[-105.19382300037955,39.73431899984593],[-105.19382400020444,39.73437299980756],[-105.19254000043962,39.734377999955406],[-105.1925460002874,39.73637800029036],[-105.19292100020613,39.73637500015061],[-105.19303300035911,39.73637399987373],[-105.19304199968164,39.73744800013068],[-105.19295299999317,39.73743399992499],[-105.19182099966599,39.737142999890125],[-105.19166099983242,39.73710300030199],[-105.19165099978669,39.73719900024153],[-105.19164099974094,39.73760899987418],[-105.1916020002812,39.73760800030602],[-105.19158899986239,39.73979600031682],[-105.19169900036557,39.73983299973423],[-105.1917860004042,39.739859000097084],[-105.19203099972829,39.739933000225996],[-105.19229600004213,39.74000900003298],[-105.19234899974559,39.74001099979044],[-105.19254899976214,39.74001200001453],[-105.19322099978177,39.74000900003298],[-105.19321900013196,39.7399769997609],[-105.19331399966819,39.74000900003298],[-105.1937649997549,39.74000799980884],[-105.19379200041742,39.740007000275405],[-105.19378700039454,39.74049100000215],[-105.19324500007122,39.74029099980214],[-105.19320499988825,39.74031899974077],[-105.19318099959882,39.74034099973389],[-105.19313700011618,39.74037999998699],[-105.19276600039542,39.74029699974062],[-105.19167000005326,39.74001000025711],[-105.19150099999887,39.74001099979044],[-105.19139700024178,39.74001099979044],[-105.1913980000667,39.740060999925284],[-105.19139600041686,39.740155999667174],[-105.19138499964791,39.741219000193944],[-105.1906239999398,39.741216000264885],[-105.19020299999032,39.74121399985162],[-105.1902020001654,39.7424890000941],[-105.19019600031761,39.742555000046366],[-105.19011799960151,39.74254100018733],[-105.18936799976406,39.7423280000083],[-105.18925300013632,39.74228999966716],[-105.18920799993047,39.742275000253855],[-105.18901600030988,39.74220399976303],[-105.18898899964736,39.74365400013311],[-105.19374999968629,39.74363800015452],[-105.19373200014294,39.74551699969641],[-105.19376099955694,39.74627700009889],[-105.19377899999861,39.74672699983935],[-105.19378999986927,39.74727500005157],[-105.19486600011994,39.747277000288875],[-105.19642100004646,39.74727999995402],[-105.19847100044056,39.74728599997467],[-105.19853500001467,39.75448200034171],[-105.2025920002469,39.75445399994286],[-105.20558999994687,39.75448299966512],[-105.2077390000752,39.75451100005224],[-105.21248699969533,39.754576000216325],[-105.2124630003042,39.755552000149756],[-105.21240700022771,39.75793300032979],[-105.21309599996577,39.75794000007701],[-105.214849000259,39.757937000185436],[-105.21605500020601,39.75709799982838],[-105.21632700019259,39.756830000197716],[-105.21642900029983,39.75674199983392],[-105.21654300010265,39.7566430002398],[-105.21690799997562,39.75642200026272],[-105.21716499989358,39.75632400019593],[-105.21719800040387,39.75631099966921],[-105.21801699983827,39.75719600017502],[-105.21863799980432,39.757873999669854],[-105.21694300013574,39.75888700006347],[-105.2170460000679,39.759115000045504],[-105.21710700016726,39.759250000324194],[-105.21705500028872,39.75929200006536],[-105.21697800029584,39.75933299983731],[-105.21680900024144,39.75943300034091],[-105.21679300034789,39.75944299976176],[-105.2167790001042,39.75945299987174],[-105.21675999983763,39.75946699974704],[-105.21668600021779,39.75951099992847],[-105.21654499975249,39.75960399990567],[-105.21647100013263,39.75964799999962],[-105.21643699979744,39.75967299985209],[-105.2161799998795,39.75982500003069],[-105.21596399996942,39.75996100023322],[-105.21589600019736,39.76000899983437],[-105.21553899982197,39.760234999693644],[-105.21547000022501,39.76028299979434],[-105.21507900041277,39.76053399967546],[-105.2145250003939,39.76101900014166],[-105.21417700023936,39.76135299994314],[-105.21389100000908,39.76158700020358],[-105.21376100031273,39.761687000196275],[-105.21363900011401,39.7617940000898],[-105.21359399990816,39.7618549999676],[-105.21348799960296,39.76197100012953],[-105.21342099965581,39.76206400023731],[-105.2133560002568,39.76211600005717],[-105.21327800043899,39.762153999821],[-105.21312600010302,39.762236999977375],[-105.21295500039881,39.76230899974911],[-105.21292000023868,39.76232400032504],[-105.21289000010147,39.76233200021657],[-105.21261200026713,39.762405999686976],[-105.21229500007473,39.76250499997389],[-105.21229099987676,39.762602000326204],[-105.21229000005185,39.76265500032573],[-105.21227099978526,39.7634899997418],[-105.21226199956443,39.763891000094056],[-105.21226099973951,39.763912000278886],[-105.21225900008972,39.76393400033411],[-105.21117199996836,39.76450500012541],[-105.21068700044478,39.764766999702495],[-105.20872400008928,39.76582100025781],[-105.20806700013824,39.76614200019269],[-105.20721400036865,39.766511999753824],[-105.20659500005245,39.766799000007346],[-105.20591800000993,39.767136000264685],[-105.20502300040752,39.76749400003632],[-105.20449000030507,39.76766399978521],[-105.20434999966464,39.76770599991845],[-105.20148500003405,39.76870300030933],[-105.19965999977084,39.76922100016981],[-105.1994870004168,39.7693040000931],[-105.19809499979863,39.76975699999054],[-105.19708300002034,39.769972999655785],[-105.19407699992445,39.770561999962894],[-105.19396499977145,39.770602999929146],[-105.19145099977014,39.77118199989312],[-105.19031500014331,39.77142100011342],[-105.19022800010467,39.771495999939255],[-105.19017600022615,39.771548000230865],[-105.18993900039968,39.77159600004027],[-105.189011000287,39.771792999828094],[-105.18829099968845,39.771951000123146],[-105.1877090000805,39.77207799995325],[-105.18723999955212,39.77220099983172],[-105.18683299984635,39.77233800020105],[-105.18624000036773,39.772615999815116],[-105.1857370004025,39.772857999821824],[-105.18520699977475,39.77310600020133],[-105.1847380001447,39.773312999978685],[-105.18393999972835,39.773579000196236],[-105.18234999964177,39.77406199976215],[-105.180957000097,39.7744839997091],[-105.17781399973374,39.77537100012718],[-105.17726399991282,39.77554799978436],[-105.1771850002701,39.775570000263826],[-105.17542299975607,39.7760670003091],[-105.17507700014966,39.77612500017921],[-105.1749590001489,39.776132999847945],[-105.17495999997381,39.77642699997463],[-105.17495800032398,39.77663699988799],[-105.17494999992806,39.77683799988543],[-105.17489300002666,39.77722799984445],[-105.1748889998287,39.77758800034109],[-105.17489300002666,39.77771799984669],[-105.17490200024749,39.777927999963254],[-105.17492300016389,39.7779829999372],[-105.1750019998066,39.7781789997254],[-105.1750029996315,39.77957200011333],[-105.17500799965438,39.781530999797326],[-105.17500000015677,39.78260500020143],[-105.17495999997381,39.78300899984561],[-105.17495699960077,39.783492999789],[-105.17493300020962,39.78625699971227],[-105.17493499985945,39.78660799984765],[-105.17737600006582,39.786647000135666],[-105.17741100022592,39.786647999682565],[-105.1774249995713,39.786385999858055],[-105.177438999815,39.78601499987797],[-105.17820200007125,39.786019000173084],[-105.17818899965246,39.786394999955526],[-105.17819500039856,39.78667900012533],[-105.17840399973763,39.78669499976946],[-105.17867300024946,39.78673599978972],[-105.17904800016817,39.78681499974296],[-105.17926999992603,39.78687999978501],[-105.17947699961526,39.78695500002275],[-105.17974699995199,39.78704399996868],[-105.18002599961125,39.787111000255344],[-105.18025199956706,39.78716100002492],[-105.18088400030206,39.787207000222665],[-105.18184000000382,39.787217999980236],[-105.18188600003458,39.787219000209134],[-105.18189199988237,39.78708799978307],[-105.18189699990523,39.78698300032063],[-105.18191600017181,39.78687999978501],[-105.18198300011896,39.78665999976655],[-105.1819920003398,39.78660400027709],[-105.18199999983739,39.78646599976272],[-105.18199099961657,39.786385999858055],[-105.18197100042339,39.786305999860375],[-105.18184699967651,39.786008999779995],[-105.18179800017103,39.785893000083774],[-105.18177800007956,39.78581699981971],[-105.18177200023177,39.785779000001355],[-105.18177100040685,39.785766999763716],[-105.1819000002783,39.78576800001366],[-105.18280300027662,39.78577599994212],[-105.18308399958569,39.785779000001355],[-105.1841539999886,39.785788999737605],[-105.18413499972202,39.786843000097825],[-105.18413200024727,39.787111000255344],[-105.18420500004223,39.78711199979549],[-105.1854079996162,39.787123999798546],[-105.18598400027469,39.78713100002947],[-105.1860129996887,39.78543099985298],[-105.18415999983637,39.78544399971366],[-105.18419199962342,39.7835519998959],[-105.18714099981793,39.78354899973955],[-105.18907400003619,39.783546999865415],[-105.18927400005272,39.78354600027347],[-105.18928300027355,39.7835040001404],[-105.18929099977117,39.783465000141774],[-105.18909900015053,39.78346099969817],[-105.18892400024833,39.783460000104974],[-105.18827499979494,39.783458000228194],[-105.18832400019875,39.783036000079036],[-105.18840000036671,39.78260599980704],[-105.18863299999522,39.78141199989601],[-105.18946700039658,39.78140699970997],[-105.18964200029875,39.78140600008694],[-105.1897860002388,39.78140400015047],[-105.18991299956208,39.78102000022748],[-105.18992400033106,39.78098799967697],[-105.19002100041544,39.78044599974137],[-105.1902719995873,39.779322000252364],[-105.19076000038226,39.77751699965773],[-105.19089000007857,39.77712200014863],[-105.19121200029385,39.77631000030715],[-105.1912280001874,39.77625699977275],[-105.19101499975204,39.77625699977275],[-105.19032799966378,39.77626900028807],[-105.19032600001398,39.77622100028525],[-105.19031599996822,39.77583500034009],[-105.19029699970164,39.77579199993854],[-105.19014699991381,39.77545200012037],[-105.18898100014978,39.77541900003237],[-105.1889760001269,39.77548800001004],[-105.18886800017185,39.77549200022677],[-105.18887200036983,39.77541600021187],[-105.18895199983744,39.773310000066395],[-105.18903100037848,39.77297400008828],[-105.18905099957165,39.77286099975382],[-105.18906099961738,39.77280800001569],[-105.18907300021127,39.77267699977146],[-105.18907599968601,39.77259800015727],[-105.18908499990684,39.77240300010957],[-105.18908699955666,39.7723589998808],[-105.18923399986976,39.772358000126346],[-105.18926700038003,39.77232499993581],[-105.18978500041389,39.771807999718746],[-105.1898840001481,39.77173600021379],[-105.18994699989729,39.77169000003037],[-105.19003499976083,39.771672000130344],[-105.1900130000195,39.77161099997384],[-105.19014000024113,39.77158199986917],[-105.19018999957153,39.77157200013973],[-105.1902309995794,39.771642000286505],[-105.19154200000673,39.77136599972886],[-105.19400499995442,39.77078799970888],[-105.1941589999402,39.77075100034507],[-105.19703399961654,39.77021299971638],[-105.19755099982547,39.77009700032089],[-105.19818699986013,39.76994599982098],[-105.19986499981026,39.76936900010458],[-105.2000659996517,39.769287999857795],[-105.20154000028565,39.76889900028573],[-105.20437099958104,39.76784199974664],[-105.20447299968829,39.7678039996694],[-105.20508699998163,39.76758599976569],[-105.20597800028439,39.76722799978194],[-105.20665699997674,39.76691500012637],[-105.20683600007686,39.7668289998902],[-105.20729499966119,39.76660999982331],[-105.20884000044023,39.7658929997345],[-105.2099209998155,39.76529799969877],[-105.21075500021685,39.764839000281405],[-105.21123300006772,39.764577000287765],[-105.21123999974041,39.76458499991748],[-105.21182899991938,39.764281000213],[-105.21213699989097,39.7641109997068],[-105.21228199965593,39.764036000121806],[-105.21224599967093,39.764493000321195],[-105.21222700030266,39.76528799974711],[-105.2122239999296,39.76540900030799],[-105.21190400026246,39.765580000224396],[-105.2117159999415,39.76567699969748],[-105.21169400020018,39.7656880001345],[-105.21187099975218,39.76595400012415],[-105.2118930003918,39.76598699991624],[-105.21391799977327,39.76902799982826],[-105.21463199962571,39.76903099992715],[-105.21492399970376,39.769031999729926],[-105.2204260002576,39.769040000223065],[-105.22172500009106,39.769045999729144],[-105.22173199976376,39.77032000016997],[-105.22174500018257,39.772573999915615],[-105.22268099979283,39.77257199972249],[-105.22303399997024,39.77256800002655],[-105.22410600002297,39.77317499973599],[-105.22446000002532,39.7735820000968],[-105.22476499962383,39.77414299991497],[-105.22478999973819,39.774145000062404],[-105.22483599976894,39.77506300016908],[-105.22434500039758,39.77612399978904],[-105.2243319999788,39.77615099996222],[-105.22432000028323,39.77620399988789],[-105.22418300001587,39.77681799988108],[-105.22421900000087,39.77750099995062],[-105.22426599985654,39.77767699997603],[-105.22436799996379,39.77790299983503],[-105.22451100007893,39.778255999810035],[-105.2247770002177,39.778516000194394],[-105.22479300011123,39.77853500004057],[-105.22485900023348,39.7786130000809],[-105.22502900011278,39.778760999843584],[-105.22519300014433,39.77892100003128],[-105.22556300004018,39.77921600032989],[-105.22589799977592,39.77941400005276],[-105.22619400005193,39.7794930001284],[-105.22660300030584,39.77960100030353],[-105.2310000002967,39.7796030002924],[-105.23135799959869,39.779599999963885],[-105.23145600040628,39.7795990003146],[-105.2315769998818,39.7796030002924],[-105.23150800028482,39.779912999934126],[-105.2314639999039,39.7802000002371],[-105.2314429999875,39.780334999905556],[-105.23145100038342,39.78096699986848],[-105.23165200022487,39.780970999766765],[-105.23166300009552,39.7814660002248],[-105.23169499988258,39.78260700010299],[-105.23171900017202,39.78323399985624],[-105.23411400034763,39.78322800020604],[-105.23586699974253,39.78322399974865],[-105.24035999999285,39.78320999987176],[-105.24044299983353,39.78320999987176],[-105.24044000035879,39.783053000169424],[-105.24041400041952,39.78274100027812],[-105.24040500019869,39.78251700033341],[-105.24039799962769,39.78230400020274],[-105.2403859999321,39.78085600018268],[-105.24034499992423,39.7801210002827],[-105.24042699994,39.77906099980408],[-105.24042399956696,39.77599300033253],[-105.24041699989424,39.774719999660654],[-105.24042100009221,39.77425999981402],[-105.24042100009221,39.77390900021066],[-105.2394279996822,39.773933999718366],[-105.23808700001598,39.773961000060254],[-105.2380970000617,39.773451999683296],[-105.23808899966578,39.773269000331595],[-105.2380960002368,39.77238399995145],[-105.23647500018807,39.772400000157624],[-105.23627199979849,39.772397000205544],[-105.23630299976062,39.772332000291364],[-105.23637700027878,39.772103000125945],[-105.23644300040101,39.77183599996616],[-105.23649799975429,39.77145100005355],[-105.23650899962496,39.77110599995248],[-105.23650000030243,39.77071200002378],[-105.23646500014232,39.77040499971482],[-105.23638099957843,39.7700690000566],[-105.23626299957763,39.76967799978713],[-105.23619099960763,39.76951100025603],[-105.23614999959976,39.76941499976752],[-105.23613799990417,39.769382000237584],[-105.23601700042867,39.769064000315815],[-105.23594600028356,39.768928000139695],[-105.2359060001006,39.76883699993784],[-105.23620999987419,39.7688189999823],[-105.24041500024444,39.76875199983789],[-105.24047399979568,39.7605090001355],[-105.23868500041577,39.76050199995884],[-105.23867299982189,39.75980599985411],[-105.23867000034714,39.759438000051524],[-105.238667999799,39.759272999741675],[-105.24048200019159,39.75928900023268],[-105.24051599962847,39.75436199993336]],[[-105.23628600004218,39.752447999760925],[-105.23627799964626,39.752642000343634],[-105.23579099957455,39.75223799995965],[-105.2362729996234,39.752218999761894],[-105.23628600004218,39.752447999760925]],[[-105.21434000044596,39.72543400012526],[-105.21354299985454,39.72542099998798],[-105.21341300015818,39.72541899980722],[-105.21322700038534,39.72541599988141],[-105.21240899987752,39.72539999981421],[-105.21240499967956,39.72496200016017],[-105.213230999685,39.72497499969307],[-105.21346599986164,39.72497800032898],[-105.21433899972273,39.72499099985886],[-105.21434000044596,39.72543400012526]],[[-105.17841799998132,39.724673999940904],[-105.1767969999326,39.724699000048396],[-105.1767969999326,39.72372400019445],[-105.17840499956253,39.72374599995699],[-105.1784099995854,39.72406800020043],[-105.1784160003315,39.72447100016956],[-105.17841799998132,39.724673999940904]],[[-105.2091180002746,39.719520000109725],[-105.20898199983216,39.71951500026619],[-105.20835900021629,39.7194189998835],[-105.20769999971714,39.719320999700514],[-105.20675700043415,39.719294999882415],[-105.2063730002946,39.719291999690135],[-105.20639000001303,39.71871400006157],[-105.20638199961712,39.71845399984215],[-105.20645899961,39.71840499977342],[-105.20661599996885,39.71828599995509],[-105.20684299974957,39.71809399978048],[-105.20686299984106,39.71807700023587],[-105.20704299976609,39.71786799988336],[-105.20764500036387,39.717900000054435],[-105.20779400032677,39.71787799980886],[-105.20812099966662,39.71769099985655],[-105.20815900019976,39.717849999737446],[-105.20820400040563,39.717993000229825],[-105.20825499956092,39.71811400025548],[-105.20832300023129,39.718244999941085],[-105.20852700044581,39.71860499990555],[-105.2089709999615,39.719291999690135],[-105.2091180002746,39.719520000109725]],[[-105.23481700032943,39.75297700005999],[-105.23468199971188,39.753005999713494],[-105.23454399961963,39.753028999834825],[-105.23445199955813,39.75303900018551],[-105.23426499996037,39.753043999669636],[-105.23393699989731,39.75306300033047],[-105.23360899983425,39.75307299998558],[-105.23351599994784,39.75306799981286],[-105.23346900009217,39.753068999847414],[-105.23333000017499,39.753060000226476],[-105.2330990001963,39.753034000010324],[-105.2330060003099,39.75302000020865],[-105.23265700033045,39.7529210000992],[-105.23257199994163,39.75289299975639],[-105.2325269997358,39.75288400011245],[-105.23247999988013,39.752871999664464],[-105.23211199963409,39.75281699965653],[-105.23187700035577,39.75282599999987],[-105.23173699971537,39.75283999984097],[-105.23150699956159,39.75287499977664],[-105.23137699986526,39.752915999915444],[-105.23125100036687,39.75296300024674],[-105.23108700033535,39.75303199994017],[-105.23105200017524,39.75305600008762],[-105.23103299990866,39.75306599974369],[-105.23101199999228,39.75297600002409],[-105.2309440002202,39.75268700009101],[-105.23101100016736,39.751192999947484],[-105.23153400022407,39.75122199966137],[-105.23191099979263,39.75127099988845],[-105.2323529996585,39.751347999681606],[-105.23251900023817,39.75139899993675],[-105.2329850003935,39.751514999753475],[-105.23335799976408,39.751753999867404],[-105.2337800004368,39.75205400011408],[-105.23409199970803,39.7522519999203],[-105.23441999977108,39.75257200021773],[-105.23475500040513,39.75289499983058],[-105.23481700032943,39.75297700005999]]]},"properties":{"GEOID":"0830835","BASENAME":"Golden","NAME":"Golden city","AREALAND":"24969977"}}]}
